{"type": "FeatureCollection", "features": [ {"type": "Feature", "properties": {"norad_id": 66825, "name": "STARLINK-35476", "group": "last-30-days", "lat": 61.56353656942866, "lon": -121.61397813070747, "alt_km": 335.3803852017718, "timestamp": "2025-12-13T16:48:31.466840+00:00", "meta": {"OBJECT_NAME": "STARLINK-35476", "OBJECT_ID": "2025-280E", "EPOCH": "2025-12-12T20:00:01.999872", "MEAN_MOTION": 15.79771041, "ECCENTRICITY": 0.00036273, "INCLINATION": 69.9933, "RA_OF_ASC_NODE": 198.5643, "ARG_OF_PERICENTER": 271.915, "MEAN_ANOMALY": 273.1309, "EPHEMERIS_TYPE": 0, "CLASSIFICATION_TYPE": "U", "NORAD_CAT_ID": 66825, "ELEMENT_SET_NO": 999, "REV_AT_EPOCH": 276, "BSTAR": -0.010452723, "MEAN_MOTION_DOT": -0.0167346, "MEAN_MOTION_DDOT": 0}, "tle": {"line1": "1 66825U 25280E   25346.83335648 -.01673460  00000+0 -10453-1 0  9996", "line2": "2 66825  69.9933 198.5643 0003627 271.9150 273.1309 15.79771041  2769"}}, "geometry": {"type": "Point", "coordinates": [-121.61397813070747, 61.56353656942866]}}, {"type": "Feature", "properties": {"norad_id": 66826, "name": "STARLINK-35898", "group": "last-30-days", "lat": 62.8411051220017, "lon": -118.65051052091484, "alt_km": 335.2213127048153, "timestamp": "2025-12-13T16:48:31.466850+00:00", "meta": {"OBJECT_NAME": "STARLINK-35898", "OBJECT_ID": "2025-280F", "EPOCH": "2025-12-12T20:00:01.999872", "MEAN_MOTION": 15.79794425, "ECCENTRICITY": 0.00035466, "INCLINATION": 69.9933, "RA_OF_ASC_NODE": 198.5619, "ARG_OF_PERICENTER": 268.5834, "MEAN_ANOMALY": 278.2916, "EPHEMERIS_TYPE": 0, "CLASSIFICATION_TYPE": "U", "NORAD_CAT_ID": 66826, "ELEMENT_SET_NO": 999, "REV_AT_EPOCH": 291, "BSTAR": -0.01048395, "MEAN_MOTION_DOT": -0.01679253, "MEAN_MOTION_DDOT": 0}, "tle": {"line1": "1 66826U 25280F   25346.83335648 -.01679253  00000+0 -10484-1 0  9997", "line2": "2 66826  69.9933 198.5619 0003546 268.5834 278.2916 15.79794425  2912"}}, "geometry": {"type": "Point", "coordinates": [-118.65051052091484, 62.8411051220017]}}, {"type": "Feature", "properties": {"norad_id": 66827, "name": "STARLINK-35959", "group": "last-30-days", "lat": 64.13815506341896, "lon": -115.17208328572623, "alt_km": 335.1630731629848, "timestamp": "2025-12-13T16:48:31.466860+00:00", "meta": {"OBJECT_NAME": "STARLINK-35959", "OBJECT_ID": "2025-280G", "EPOCH": "2025-12-12T20:00:01.999872", "MEAN_MOTION": 15.79794376, "ECCENTRICITY": 0.00037011, "INCLINATION": 69.9931, "RA_OF_ASC_NODE": 198.5594, "ARG_OF_PERICENTER": 272.6903, "MEAN_ANOMALY": 276.2033, "EPHEMERIS_TYPE": 0, "CLASSIFICATION_TYPE": "U", "NORAD_CAT_ID": 66827, "ELEMENT_SET_NO": 999, "REV_AT_EPOCH": 291, "BSTAR": -0.010485584, "MEAN_MOTION_DOT": -0.01679648, "MEAN_MOTION_DDOT": 0}, "tle": {"line1": "1 66827U 25280G   25346.83335648 -.01679648  00000+0 -10486-1 0  9998", "line2": "2 66827  69.9931 198.5594 0003701 272.6903 276.2033 15.79794376  2912"}}, "geometry": {"type": "Point", "coordinates": [-115.17208328572623, 64.13815506341896]}}, {"type": "Feature", "properties": {"norad_id": 66828, "name": "STARLINK-35982", "group": "last-30-days", "lat": 66.46361505962935, "lon": -107.13476308325836, "alt_km": 335.1064928416172, "timestamp": "2025-12-13T16:48:31.466872+00:00", "meta": {"OBJECT_NAME": "STARLINK-35982", "OBJECT_ID": "2025-280H", "EPOCH": "2025-12-12T20:00:01.999872", "MEAN_MOTION": 15.79784341, "ECCENTRICITY": 0.00036163, "INCLINATION": 69.9931, "RA_OF_ASC_NODE": 198.5545, "ARG_OF_PERICENTER": 272.0194, "MEAN_ANOMALY": 281.0729, "EPHEMERIS_TYPE": 0, "CLASSIFICATION_TYPE": "U", "NORAD_CAT_ID": 66828, "ELEMENT_SET_NO": 999, "REV_AT_EPOCH": 291, "BSTAR": -0.010688711, "MEAN_MOTION_DOT": -0.01706907, "MEAN_MOTION_DDOT": 0}, "tle": {"line1": "1 66828U 25280H   25346.83335648 -.01706907  00000+0 -10689-1 0  9993", "line2": "2 66828  69.9931 198.5545 0003616 272.0194 281.0729 15.79784341  2917"}}, "geometry": {"type": "Point", "coordinates": [-107.13476308325836, 66.46361505962935]}}, {"type": "Feature", "properties": {"norad_id": 66829, "name": "STARLINK-36084", "group": "last-30-days", "lat": 65.34474307262042, "lon": -111.36387884593852, "alt_km": 335.11852548969546, "timestamp": "2025-12-13T16:48:31.466882+00:00", "meta": {"OBJECT_NAME": "STARLINK-36084", "OBJECT_ID": "2025-280J", "EPOCH": "2025-12-12T20:00:01.999872", "MEAN_MOTION": 15.79792609, "ECCENTRICITY": 0.0003605, "INCLINATION": 69.993, "RA_OF_ASC_NODE": 198.5569, "ARG_OF_PERICENTER": 273.4571, "MEAN_ANOMALY": 277.5374, "EPHEMERIS_TYPE": 0, "CLASSIFICATION_TYPE": "U", "NORAD_CAT_ID": 66829, "ELEMENT_SET_NO": 999, "REV_AT_EPOCH": 275, "BSTAR": -0.010650274, "MEAN_MOTION_DOT": -0.01702163, "MEAN_MOTION_DDOT": 0}, "tle": {"line1": "1 66829U 25280J   25346.83335648 -.01702163  00000+0 -10650-1 0  9992", "line2": "2 66829  69.9930 198.5569 0003605 273.4571 277.5374 15.79792609  2759"}}, "geometry": {"type": "Point", "coordinates": [-111.36387884593852, 65.34474307262042]}}, {"type": "Feature", "properties": {"norad_id": 66830, "name": "STARLINK-35881", "group": "last-30-days", "lat": 67.38053908381089, "lon": -102.92477282267093, "alt_km": 334.8207864657379, "timestamp": "2025-12-13T16:48:31.466892+00:00", "meta": {"OBJECT_NAME": "STARLINK-35881", "OBJECT_ID": "2025-280K", "EPOCH": "2025-12-12T20:00:01.999872", "MEAN_MOTION": 15.79805407, "ECCENTRICITY": 0.00035083, "INCLINATION": 69.9926, "RA_OF_ASC_NODE": 198.5518, "ARG_OF_PERICENTER": 276.102, "MEAN_ANOMALY": 278.7868, "EPHEMERIS_TYPE": 0, "CLASSIFICATION_TYPE": "U", "NORAD_CAT_ID": 66830, "ELEMENT_SET_NO": 999, "REV_AT_EPOCH": 291, "BSTAR": -0.010633459, "MEAN_MOTION_DOT": -0.017006, "MEAN_MOTION_DDOT": 0}, "tle": {"line1": "1 66830U 25280K   25346.83335648 -.01700600  00000+0 -10633-1 0  9999", "line2": "2 66830  69.9926 198.5518 0003508 276.1020 278.7868 15.79805407  2911"}}, "geometry": {"type": "Point", "coordinates": [-102.92477282267093, 67.38053908381089]}}, {"type": "Feature", "properties": {"norad_id": 66831, "name": "STARLINK-35788", "group": "last-30-days", "lat": 68.1712085512901, "lon": -98.45906700208013, "alt_km": 334.8939830231284, "timestamp": "2025-12-13T16:48:31.466904+00:00", "meta": {"OBJECT_NAME": "STARLINK-35788", "OBJECT_ID": "2025-280L", "EPOCH": "2025-12-12T20:00:01.999872", "MEAN_MOTION": 15.79833976, "ECCENTRICITY": 0.00036219, "INCLINATION": 69.9935, "RA_OF_ASC_NODE": 198.5503, "ARG_OF_PERICENTER": 270.085, "MEAN_ANOMALY": 286.6266, "EPHEMERIS_TYPE": 0, "CLASSIFICATION_TYPE": "U", "NORAD_CAT_ID": 66831, "ELEMENT_SET_NO": 999, "REV_AT_EPOCH": 291, "BSTAR": -0.010717603, "MEAN_MOTION_DOT": -0.01750142, "MEAN_MOTION_DDOT": 0}, "tle": {"line1": "1 66831U 25280L   25346.83335648 -.01750142  00000+0 -10718-1 0  9990", "line2": "2 66831  69.9935 198.5503 0003621 270.0850 286.6266 15.79833976  2918"}}, "geometry": {"type": "Point", "coordinates": [-98.45906700208013, 68.1712085512901]}}, {"type": "Feature", "properties": {"norad_id": 66832, "name": "STARLINK-35768", "group": "last-30-days", "lat": 68.84091696558873, "lon": -93.62901848827792, "alt_km": 334.71845921061595, "timestamp": "2025-12-13T16:48:31.466914+00:00", "meta": {"OBJECT_NAME": "STARLINK-35768", "OBJECT_ID": "2025-280M", "EPOCH": "2025-12-12T20:00:01.999872", "MEAN_MOTION": 15.79855527, "ECCENTRICITY": 0.00036462, "INCLINATION": 69.9929, "RA_OF_ASC_NODE": 198.5475, "ARG_OF_PERICENTER": 273.5297, "MEAN_ANOMALY": 284.966, "EPHEMERIS_TYPE": 0, "CLASSIFICATION_TYPE": "U", "NORAD_CAT_ID": 66832, "ELEMENT_SET_NO": 999, "REV_AT_EPOCH": 291, "BSTAR": -0.010627894, "MEAN_MOTION_DOT": -0.01703374, "MEAN_MOTION_DDOT": 0}, "tle": {"line1": "1 66832U 25280M   25346.83335648 -.01703374  00000+0 -10628-1 0  9996", "line2": "2 66832  69.9929 198.5475 0003646 273.5297 284.9660 15.79855527  2915"}}, "geometry": {"type": "Point", "coordinates": [-93.62901848827792, 68.84091696558873]}}, {"type": "Feature", "properties": {"norad_id": 66833, "name": "STARLINK-35858", "group": "last-30-days", "lat": 69.40488063700843, "lon": -88.07349809422497, "alt_km": 334.7984425861523, "timestamp": "2025-12-13T16:48:31.466945+00:00", "meta": {"OBJECT_NAME": "STARLINK-35858", "OBJECT_ID": "2025-280N", "EPOCH": "2025-12-12T20:00:01.999872", "MEAN_MOTION": 15.79845008, "ECCENTRICITY": 0.00036676, "INCLINATION": 69.9931, "RA_OF_ASC_NODE": 198.5454, "ARG_OF_PERICENTER": 270.62, "MEAN_ANOMALY": 290.0012, "EPHEMERIS_TYPE": 0, "CLASSIFICATION_TYPE": "U", "NORAD_CAT_ID": 66833, "ELEMENT_SET_NO": 999, "REV_AT_EPOCH": 291, "BSTAR": -0.010709306, "MEAN_MOTION_DOT": -0.01749777, "MEAN_MOTION_DDOT": 0}, "tle": {"line1": "1 66833U 25280N   25346.83335648 -.01749777  00000+0 -10709-1 0  9994", "line2": "2 66833  69.9931 198.5454 0003667 270.6200 290.0012 15.79845008  2913"}}, "geometry": {"type": "Point", "coordinates": [-88.07349809422497, 69.40488063700843]}}, {"type": "Feature", "properties": {"norad_id": 66834, "name": "STARLINK-35840", "group": "last-30-days", "lat": 69.75775201387346, "lon": -82.76839966215836, "alt_km": 334.73380244856435, "timestamp": "2025-12-13T16:48:31.466957+00:00", "meta": {"OBJECT_NAME": "STARLINK-35840", "OBJECT_ID": "2025-280P", "EPOCH": "2025-12-12T20:00:01.999872", "MEAN_MOTION": 15.7986852, "ECCENTRICITY": 0.00036589, "INCLINATION": 69.9927, "RA_OF_ASC_NODE": 198.5427, "ARG_OF_PERICENTER": 268.1971, "MEAN_ANOMALY": 294.2549, "EPHEMERIS_TYPE": 0, "CLASSIFICATION_TYPE": "U", "NORAD_CAT_ID": 66834, "ELEMENT_SET_NO": 999, "REV_AT_EPOCH": 291, "BSTAR": -0.010742176, "MEAN_MOTION_DOT": -0.01756186, "MEAN_MOTION_DDOT": 0}, "tle": {"line1": "1 66834U 25280P   25346.83335648 -.01756186  00000+0 -10742-1 0  9994", "line2": "2 66834  69.9927 198.5427 0003658 268.1971 294.2549 15.79868520  2911"}}, "geometry": {"type": "Point", "coordinates": [-82.76839966215836, 69.75775201387346]}}]}